{
  "type": "FeatureCollection",
  "features": [
    {
      "type": "Feature",
      "properties": {
        "norad_id": 66611,
        "name": "STARLINK-35583",
        "group": "last-30-days",
        "lat": 37.51709182800258,
        "lon": -116.4717139310056,
        "alt_km": 437.91081966849833,
        "timestamp": "2025-12-25T09:48:51.003466+00:00",
        "meta_object_name": "STARLINK-35583",
        "meta_object_id": "2025-270Z",
        "meta_epoch": "2025-12-24T16:11:46.963104",
        "meta_mean_motion": 15.40740311,
        "meta_eccentricity": 7.112e-05,
        "meta_inclination": 42.9976,
        "meta_ra_of_asc_node": 123.2493,
        "meta_arg_of_pericenter": 221.788,
        "meta_mean_anomaly": 138.2923,
        "meta_ephemeris_type": 0,
        "meta_classification_type": "U",
        "meta_norad_cat_id": 66611,
        "meta_element_set_no": 999,
        "meta_rev_at_epoch": 630,
        "meta_bstar": 0.0011099582,
        "meta_mean_motion_dot": 0.00046406,
        "meta_mean_motion_ddot": 0,
        "tle_line1": "1 66611U 25270Z   25358.67484911  .00046406  00000+0  11100-2 0  9993",
        "tle_line2": "2 66611  42.9976 123.2493 0000711 221.7880 138.2923 15.40740311  6303"
      },
      "geometry": {
        "type": "Point",
        "coordinates": [
          -116.4717139310056,
          37.51709182800258
        ]
      }
    },
    {
      "type": "Feature",
      "properties": {
        "norad_id": 66612,
        "name": "STARLINK-36039",
        "group": "last-30-days",
        "lat": -30.304383565867393,
        "lon": -21.52711719125697,
        "alt_km": 446.1084828064031,
        "timestamp": "2025-12-25T09:48:51.003477+00:00",
        "meta_object_name": "STARLINK-36039",
        "meta_object_id": "2025-270AA",
        "meta_epoch": "2025-12-25T01:03:04.008960",
        "meta_mean_motion": 15.40706418,
        "meta_eccentricity": 0.0001147,
        "meta_inclination": 42.9994,
        "meta_ra_of_asc_node": 121.733,
        "meta_arg_of_pericenter": 270.7369,
        "meta_mean_anomaly": 89.3356,
        "meta_ephemeris_type": 0,
        "meta_classification_type": "U",
        "meta_norad_cat_id": 66612,
        "meta_element_set_no": 999,
        "meta_rev_at_epoch": 624,
        "meta_bstar": 0.0010341,
        "meta_mean_motion_dot": 0.00043146,
        "meta_mean_motion_ddot": 0,
        "tle_line1": "1 66612U 25270AA  25359.04379640  .00043146  00000+0  10341-2 0  9992",
        "tle_line2": "2 66612  42.9994 121.7330 0001147 270.7369  89.3356 15.40706418  6246"
      },
      "geometry": {
        "type": "Point",
        "coordinates": [
          -21.52711719125697,
          -30.304383565867393
        ]
      }
    },
    {
      "type": "Feature",
      "properties": {
        "norad_id": 66613,
        "name": "STARLINK-36037",
        "group": "last-30-days",
        "lat": -40.596053337387154,
        "lon": 6.444232458937024,
        "alt_km": 446.4358440737951,
        "timestamp": "2025-12-25T09:48:51.003487+00:00",
        "meta_object_name": "STARLINK-36037",
        "meta_object_id": "2025-270AB",
        "meta_epoch": "2025-12-25T00:56:36.843648",
        "meta_mean_motion": 15.40740368,
        "meta_eccentricity": 0.0001252,
        "meta_inclination": 42.9995,
        "meta_ra_of_asc_node": 121.6968,
        "meta_arg_of_pericenter": 293.5629,
        "meta_mean_anomaly": 66.5096,
        "meta_ephemeris_type": 0,
        "meta_classification_type": "U",
        "meta_norad_cat_id": 66613,
        "meta_element_set_no": 999,
        "meta_rev_at_epoch": 624,
        "meta_bstar": 0.0015451,
        "meta_mean_motion_dot": 0.00064875,
        "meta_mean_motion_ddot": 0,
        "tle_line1": "1 66613U 25270AB  25359.03931532  .00064875  00000+0  15451-2 0  9995",
        "tle_line2": "2 66613  42.9995 121.6968 0001252 293.5629  66.5096 15.40740368  6243"
      },
      "geometry": {
        "type": "Point",
        "coordinates": [
          6.444232458937024,
          -40.596053337387154
        ]
      }
    },
    {
      "type": "Feature",
      "properties": {
        "norad_id": 66614,
        "name": "STARLINK-36040",
        "group": "last-30-days",
        "lat": 3.115681084373428,
        "lon": 122.6404499575826,
        "alt_km": 443.34737811092054,
        "timestamp": "2025-12-25T09:48:51.003497+00:00",
        "meta_object_name": "STARLINK-36040",
        "meta_object_id": "2025-270AC",
        "meta_epoch": "2025-12-24T16:40:48.645408",
        "meta_mean_motion": 15.40708736,
        "meta_eccentricity": 0.00019469,
        "meta_inclination": 43.0023,
        "meta_ra_of_asc_node": 123.4071,
        "meta_arg_of_pericenter": 261.675,
        "meta_mean_anomaly": 98.3886,
        "meta_ephemeris_type": 0,
        "meta_classification_type": "U",
        "meta_norad_cat_id": 66614,
        "meta_element_set_no": 999,
        "meta_rev_at_epoch": 603,
        "meta_bstar": 0.0012225768,
        "meta_mean_motion_dot": 0.00051125,
        "meta_mean_motion_ddot": 0,
        "tle_line1": "1 66614U 25270AC  25358.69500747  .00051125  00000+0  12226-2 0  9998",
        "tle_line2": "2 66614  43.0023 123.4071 0001946 261.6750  98.3886 15.40708736  6034"
      },
      "geometry": {
        "type": "Point",
        "coordinates": [
          122.6404499575826,
          3.115681084373428
        ]
      }
    },
    {
      "type": "Feature",
      "properties": {
        "norad_id": 66615,
        "name": "STARLINK-35988",
        "group": "last-30-days",
        "lat": -39.8279319534091,
        "lon": 55.95962112239428,
        "alt_km": 446.4495954760969,
        "timestamp": "2025-12-25T09:48:51.003507+00:00",
        "meta_object_name": "STARLINK-35988",
        "meta_object_id": "2025-270AD",
        "meta_epoch": "2025-12-24T15:26:48.708384",
        "meta_mean_motion": 15.40720042,
        "meta_eccentricity": 8.454e-05,
        "meta_inclination": 42.9985,
        "meta_ra_of_asc_node": 123.8838,
        "meta_arg_of_pericenter": 268.0522,
        "meta_mean_anomaly": 92.0238,
        "meta_ephemeris_type": 0,
        "meta_classification_type": "U",
        "meta_norad_cat_id": 66615,
        "meta_element_set_no": 999,
        "meta_rev_at_epoch": 602,
        "meta_bstar": 0.0012103707,
        "meta_mean_motion_dot": 0.00050626,
        "meta_mean_motion_ddot": 0,
        "tle_line1": "1 66615U 25270AD  25358.64361931  .00050626  00000+0  12104-2 0  9994",
        "tle_line2": "2 66615  42.9985 123.8838 0000845 268.0522  92.0238 15.40720042  6025"
      },
      "geometry": {
        "type": "Point",
        "coordinates": [
          55.95962112239428,
          -39.8279319534091
        ]
      }
    },
    {
      "type": "Feature",
      "properties": {
        "norad_id": 66616,
        "name": "STARLINK-35391",
        "group": "last-30-days",
        "lat": 19.71016148770742,
        "lon": 141.8421611597255,
        "alt_km": 440.701915357924,
        "timestamp": "2025-12-25T09:48:51.003517+00:00",
        "meta_object_name": "STARLINK-35391",
        "meta_object_id": "2025-270AE",
        "meta_epoch": "2025-12-24T08:47:35.797920",
        "meta_mean_motion": 15.40729798,
        "meta_eccentricity": 9.163e-05,
        "meta_inclination": 42.9974,
        "meta_ra_of_asc_node": 125.2405,
        "meta_arg_of_pericenter": 275.8845,
        "meta_mean_anomaly": 84.1907,
        "meta_ephemeris_type": 0,
        "meta_classification_type": "U",
        "meta_norad_cat_id": 66616,
        "meta_element_set_no": 999,
        "meta_rev_at_epoch": 625,
        "meta_bstar": 0.0012253863,
        "meta_mean_motion_dot": 0.00051279,
        "meta_mean_motion_ddot": 0,
        "tle_line1": "1 66616U 25270AE  25358.36638655  .00051279  00000+0  12254-2 0  9995",
        "tle_line2": "2 66616  42.9974 125.2405 0000916 275.8845  84.1907 15.40729798  6250"
      },
      "geometry": {
        "type": "Point",
        "coordinates": [
          141.8421611597255,
          19.71016148770742
        ]
      }
    },
    {
      "type": "Feature",
      "properties": {
        "norad_id": 66617,
        "name": "STARLINK-35940",
        "group": "last-30-days",
        "lat": -34.25355059351668,
        "lon": -21.913821686456203,
        "alt_km": 451.67631967062243,
        "timestamp": "2025-12-25T09:48:51.003527+00:00",
        "meta_object_name": "STARLINK-35940",
        "meta_object_id": "2025-271A",
        "meta_epoch": "2025-12-24T15:42:19.748736",
        "meta_mean_motion": 15.39631392,
        "meta_eccentricity": 9.52e-05,
        "meta_inclination": 53.16,
        "meta_ra_of_asc_node": 130.9434,
        "meta_arg_of_pericenter": 82.8453,
        "meta_mean_anomaly": 277.266,
        "meta_ephemeris_type": 0,
        "meta_classification_type": "U",
        "meta_norad_cat_id": 66617,
        "meta_element_set_no": 999,
        "meta_rev_at_epoch": 604,
        "meta_bstar": 0.00059606,
        "meta_mean_motion_dot": 0.00023525,
        "meta_mean_motion_ddot": 0,
        "tle_line1": "1 66617U 25271A   25358.65439524  .00023525  00000+0  59606-3 0  9999",
        "tle_line2": "2 66617  53.1600 130.9434 0000952  82.8453 277.2660 15.39631392  6045"
      },
      "geometry": {
        "type": "Point",
        "coordinates": [
          -21.913821686456203,
          -34.25355059351668
        ]
      }
    }
  ]
}